GNOMES-1                
1 46266U 20059B   26068.53916665  .00004080  00000+0  33422-3 0  9991
2 46266  97.8057 278.7760 0005451 357.8604   2.2595 14.99848479300657
STARLINK-4413           
1 53207U 22084U   26068.75328417  .00000402  00000+0  35798-4 0  9993
2 53207  97.6031 130.2576 0001388  93.3470 266.7913 15.01261476199326
