[{"OBJECT_NAME":"GNOMES-1","OBJECT_ID":"2020-059B","EPOCH":"2026-03-09T12:56:23.998560","MEAN_MOTION":14.99848479,"ECCENTRICITY":0.00054513,"INCLINATION":97.8057,"RA_OF_ASC_NODE":278.776,"ARG_OF_PERICENTER":357.8604,"MEAN_ANOMALY":2.2595,"EPHEMERIS_TYPE":0,"CLASSIFICATION_TYPE":"U","NORAD_CAT_ID":46266,"ELEMENT_SET_NO":999,"REV_AT_EPOCH":30065,"BSTAR":0.00033421547,"MEAN_MOTION_DOT":4.08e-5,"MEAN_MOTION_DDOT":0},{"OBJECT_NAME":"STARLINK-4413","OBJECT_ID":"2022-084U","EPOCH":"2026-03-09T18:04:43.752288","MEAN_MOTION":15.01261476,"ECCENTRICITY":0.0001388,"INCLINATION":97.6031,"RA_OF_ASC_NODE":130.2576,"ARG_OF_PERICENTER":93.347,"MEAN_ANOMALY":266.7913,"EPHEMERIS_TYPE":0,"CLASSIFICATION_TYPE":"U","NORAD_CAT_ID":53207,"ELEMENT_SET_NO":999,"REV_AT_EPOCH":19932,"BSTAR":3.5798091e-5,"MEAN_MOTION_DOT":4.02e-6,"MEAN_MOTION_DDOT":0}]
